postcode,stad,latitude,longitude,link
1000,Brussel,50.8427501,4.351549900000009,
1020,Brussel (Laken),50.884218,4.358000199999992,
1020,Bruxelles (Laeken),50.884218,4.358000199999992,
1020,Laeken (Bruxelles),50.884218,4.358000199999992,
1020,Laken (Brussel),50.884218,4.358000199999992,
1030,Brussel (Schaarbeek),50.86743999999999,4.377269999999953,
1030,Bruxelles (Schaerbeek),50.86743999999999,4.377269999999953,
1030,Schaarbeek,50.86743999999999,4.377269999999953,
1030,Schaerbeek,50.86743999999999,4.377269999999953,
1040,Brussel (Etterbeek),50.83217699999999,4.388949000000025,
1040,Bruxelles (Etterbeek),50.83217699999999,4.388949000000025,
1040,Etterbeek,50.83217699999999,4.388949000000025,
1050,Brussel (Elsene),50.8333333,4.366666699999996,
1050,Bruxelles (Ixelles),50.8333333,4.366666699999996,
1050,Elsene,50.8333333,4.366666699999996,
1050,Ixelles,50.8333333,4.366666699999996,
1060,Brussel (Sint-Gillis),50.8301436,4.340218400000026,
1060,Bruxelles (Saint-Gilles),50.8301436,4.340218400000026,
1060,Saint-Gilles,50.8301436,4.340218400000026,
1060,Sint-Gillis,50.8301436,4.340218400000026,
1070,Anderlecht,50.8365808,4.308186999999975,
1070,Brussel (Anderlecht),50.8365808,4.308186999999975,
1070,Bruxelles (Anderlecht),50.8365808,4.308186999999975,
1080,Brussel (Sint-Jans-Molenbeek),50.84999999999999,4.316666700000042,
1080,Bruxelles (Molenbeek-Saint-Jean),50.84999999999999,4.316666700000042,
1080,Molenbeek-Saint-Jean,50.84999999999999,4.316666700000042,
1080,Sint-Jans-Molenbeek,50.84999999999999,4.316666700000042,
1081,Brussel (Koekelberg),50.859029,4.3303339999999935,
1081,Bruxelles (Koekelberg),50.859029,4.3303339999999935,
1081,Koekelberg,50.859029,4.3303339999999935,
1082,Berchem-Sainte-Agathe,50.865341,4.295748000000003,
1082,Brussel (Sint-Agatha-Berchem),50.865341,4.295748000000003,
1082,Bruxelles (Berchem-Sainte-Agathe),50.865341,4.295748000000003,
1082,Sint-Agatha-Berchem,50.865341,4.295748000000003,
1083,Brussel (Ganshoren),50.87113,4.302529999999933,
1083,Bruxelles (Ganshoren),50.87113,4.302529999999933,
1083,Ganshoren,50.87113,4.302529999999933,
1090,Brussel (Jette),50.8730556,4.333888900000034,
1090,Bruxelles (Jette),50.8730556,4.333888900000034,
1090,Jette,50.8730556,4.333888900000034,
1120,Brussel (Neder-Over-Heembeek),50.905667,4.3969110000000455,
1120,Bruxelles (Neder-Over-Heembeek),50.905667,4.3969110000000455,
1120,Neder-Over-Heembeek (Bru.),50.905667,4.3969110000000455,
1130,Brussel (Haren),50.89562000000001,4.416749999999979,
1130,Bruxelles (Haeren),50.8921287,4.417596499999945,
1130,Haren (Brussel),50.89562000000001,4.416749999999979,
1130,Haren (Bruxelles),50.89562000000001,4.416749999999979,
1140,Brussel (Evere),50.8666667,4.399999999999977,
1140,Bruxelles (Evere),50.8666667,4.399999999999977,
1140,Evere,50.8666667,4.399999999999977,
1150,Brussel (Sint-Pieters-Woluwe),50.83618000000001,4.451630000000023,
1150,Bruxelles (Woluwe-Saint-Pierre),50.83618000000001,4.451630000000023,
1150,Sint-Pieters-Woluwe,50.83618000000001,4.451630000000023,
1150,Woluwe-Saint-Pierre,50.83618000000001,4.451630000000023,
1160,Auderghem,50.8166667,4.433333299999958,
1160,Brussel (Oudergem),50.8166667,4.433333299999958,
1160,Bruxelles (Auderghem),50.81643,4.426490000000058,
1160,Oudergem,50.8166667,4.433333299999958,
1170,Brussel (Watermaal-Bosvoorde),50.800919,4.414715000000001,
1170,Bruxelles (Watermael-Boitsfort),50.79749,4.424359999999979,
1170,Watermaal-Bosvoorde,50.800919,4.414715000000001,
1170,Watermael-Boitsfort,50.79749,4.424359999999979,
1180,Brussel (Ukkel),50.8,4.333333300000049,
1180,Bruxelles (Uccle),50.80240999999999,4.3406700000000455,
1180,Uccle,50.8,4.333333300000049,
1180,Ukkel,50.8,4.333333300000049,
1190,Brussel (Vorst),50.81745,4.326749999999947,
1190,Bruxelles (Forest),50.81745,4.326749999999947,
1190,Forest,50.81745,4.326749999999947,
1190,Vorst,50.81745,4.326749999999947,
1200,Brussel (Sint-Lambrechts-Woluwe),50.842365,4.4238920000000235,
1200,Bruxelles (Woluwe-Saint-Lambert),50.842365,4.4238920000000235,
1200,Sint-Lambrechts-Woluwe,50.842365,4.4238920000000235,
1200,Woluwe-Saint-Lambert,50.842365,4.4238920000000235,
1210,Brussel (Sint-Joost-ten-Node),50.8537715,4.370465700000068,
1210,Bruxelles (Saint-Josse-ten-Noode),50.8537715,4.370465700000068,
1210,Saint-Josse-ten-Noode,50.8537715,4.370465700000068,
1210,Sint-Joost-ten-Node,50.8537715,4.370465700000068,
1500,Halle,50.73248479999999,4.23491290000004,
1501,Buizingen,50.7392326,4.263915999999995,
1502,Lembeek,50.7140616,4.220043600000054,
1540,Herfelingen,50.74777109999999,4.099865499999964,
1540,Herne,50.72331639999999,4.053656499999988,
1541,Sint-Pieters-Kapelle (Bt.),50.70705239999999,3.9899741000000404,
1547,Bever,50.718269,3.940144000000032,
1547,Bievene,50.718269,3.940144000000032,
1560,Hoeilaart,50.76748629999999,4.474045799999999,
1570,Tollembeek,50.7410978,4.0067750000000615,
1570,Vollezele,50.7607201,4.025274399999944,
1570,Galmaarden,50.7529396,3.9709758000000193,
1600,Oudenaken,50.78068,4.199380000000019,
1600,Sint-Laureins-Berchem,50.78681,4.199380000000019,
1600,Sint-Pieters-Leeuw,50.7842441,4.242743000000019,
1601,Ruisbroek (Bt.),50.79035,4.298620000000028,
1602,Vlezenbeek,50.80784999999999,4.232129999999984,
1620,Drogenbos,50.7833333,4.316666700000042,
1630,Linkebeek,50.7666667,4.333333300000049,
1640,Rhode-Saint-Genese,50.74594,4.357529999999997,
1640,Sint-Genesius-Rode,50.74594,4.357529999999997,
1650,Beersel,50.7686913,4.3120069000000285,
1651,Lot,50.76777999999999,4.277069999999981,
1652,Alsemberg,50.74163,4.336130000000026,
1653,Dworp,50.72949,4.301089999999931,
1654,Huizingen,50.74657,4.273689999999988,
1670,Bogaarden,50.73999999999999,4.136320000000069,
1670,Heikruis,50.73504,4.11211000000003,
1670,Pepingen,50.7360287,4.136086299999988,
1671,Elingen,50.77926,4.171190000000024,
1673,Beert,50.74102999999999,4.181839999999966,
1674,Bellingen,50.7408,4.153990000000022,
1700,Sint-Martens-Bodegem,50.8614672,4.2128916000000345,
1700,Sint-Ulriks-Kapelle,50.8790042,4.218204700000001,
1700,Dilbeek,50.8464512,4.262063200000057,
1701,Itterbeek,50.83813869999999,4.250068899999974,
1702,Groot-Bijgaarden,50.8719066,4.2500012000000424,
1703,Schepdaal,50.8383485,4.19582719999994,
1730,Bekkerzeel,50.88523,4.238029999999981,
1730,Kobbegem,50.90862,4.251039999999989,
1730,Mollem,50.9313,4.22636,
1730,Asse,50.90547549999999,4.204895899999997,
1731,Relegem,50.89908,4.277019999999993,
1731,Zellik,50.88449,4.274009999999976,
1740,Ternat,50.8698353,4.180831699999999,
1741,Wambeek,50.85324840000001,4.162835599999994,
1742,Sint-Katherina-Lombeek,50.8732586,4.15598829999999,
1745,Mazenzele,50.942789,4.171158300000002,
1745,Opwijk,50.9666667,4.183333299999958,
1750,Gaasbeek,50.79987,4.188930000000028,
1750,Sint-Kwintens-Lennik,50.80422,4.154809999999998,
1750,Sint-Martens-Lennik,50.8122,4.167779999999993,
1750,Lennik,50.8122,4.167779999999993,
1755,Kester,50.76428,4.11934999999994,
1755,Leerbeek,50.77787,4.119429999999966,
1755,Oetingen,50.77347,4.063120000000026,
1755,Gooik,50.7952811,4.1180488999999625,
1760,Onze-Lieve-Vrouw-Lombeek,50.8197588,4.110150200000021,
1760,Pamel,50.84495,4.071010000000001,
1760,Strijtem,50.8412507,4.117365800000016,
1760,Roosdaal,50.8314294,4.087977599999931,
1761,Borchtlombeek,50.8475374,4.139768000000004,
1770,Liedekerke,50.86891,4.087289999999939,
1780,Wemmel,50.906141,4.306408000000033,
1785,Brussegem,50.92574,4.266079999999988,
1785,Hamme (Bt.),50.92042,4.280610000000024,
1785,Merchtem,50.95,4.233333300000027,
1790,Essene,50.90157430000001,4.1364264999999705,
1790,Hekelgem,50.9072267,4.108495599999969,
1790,Teralfene,50.8922688,4.098702199999934,
1790,Affligem,50.90840000000001,4.112809999999968,
1800,Peutie,50.92847,4.45187999999996,
1800,Vilvoorde,50.927262,4.424078000000009,
1804,Cargovil,50.947259,4.427268000000026,
1818,VTM,50.914158,4.397676000000047,
1820,Melsbroek,50.91512,4.478460000000041,
1820,Perk,50.93488,4.495920000000069,
1820,Steenokkerzeel,50.9188889,4.508333300000004,
1830,Machelen (Bt.),50.9119,4.432289999999966,
1831,Diegem,50.8976668,4.434696400000007,
1840,Malderen,51.02032999999999,4.2462900000000445,
1840,Steenhuffel,50.99577,4.26715999999999,
1840,Londerzeel,51.00311,4.302599999999984,
1850,Grimbergen,50.9356235,4.378559600000017,
1851,Humbeek,50.9672327,4.379511800000046,
1852,Beigem,50.9528364,4.366065299999946,
1853,Strombeek-Bever,50.9103739,4.355639999999994,
1860,Meise,50.94786209999999,4.330282699999998,
1861,Wolvertem,50.95088,4.3092699999999695,
1880,Nieuwenrode,50.97857,4.352290000000039,
1880,Ramsdonk,51.01483,4.335190000000011,
1880,Kapelle-op-den-Bos,51.009329,4.3637710000000425,
1910,Berg (Bt.),51.1316639,5.843904400000042,
1910,Buken,50.93953,4.61694,
1910,Nederokkerzeel,50.91876,4.564809999999966,
1910,Kampenhout,50.941837,4.555100000000039,
1930,Nossegem,50.8781921,4.507473900000036,
1930,Zaventem,50.87950240000001,4.48262120000004,
1931,Brucargo,50.903293,4.452214000000026,
1932,Sint-Stevens-Woluwe,50.8691972,4.450235399999997,
1933,Sterrebeek,50.8632635,4.516182299999969,
1934,Brussel X-Luchthaven Remailing,50.89234279999999,4.48781740000004,
1934,Bruxelles X-Aeroport Remailing,50.89234279999999,4.48781740000004,
1950,Kraainem,50.8610856,4.4592973999999685,
1970,Wezembeek-Oppem,50.83853999999999,4.508479999999963,
1980,Eppegem,50.9621231,4.454432900000029,
1980,Zemst,50.985535,4.455833999999982,
1981,Hofstade (Bt.),50.9916699,4.492454199999997,
1982,Elewijt,50.96185029999999,4.4964542000000165,
1982,Weerde,50.9721843,4.479329399999983,
2000,Antwerpen,51.2198771,4.401135599999975,
2018,Antwerpen,51.2037695,4.411263700000063,
2020,Antwerpen,51.1890846,4.3836284000000205,
2030,Antwerpen,51.27639629999999,4.362460400000032,
2040,Berendrecht,51.34287,4.314089999999965,
2040,Lillo,51.30436,4.280259999999998,
2040,Zandvliet,51.35964999999999,4.307160000000067,
2040,Antwerpen,51.34183059999999,4.2964604999999665,
2050,Antwerpen,51.2287575,4.374022100000047,
2060,Antwerpen,51.2293515,4.427988300000038,
2070,Burcht,51.20367,4.341480000000047,
2070,Zwijndrecht,51.21904,4.32659000000001,
2100,Deurne (Antwerpen),51.1891603,4.46192080000003,
2110,Wijnegem,51.2277778,4.515555599999971,
2140,Borgerhout (Antwerpen),51.213847,4.440563300000008,
2150,Borsbeek (Antw.),51.194179,4.481593999999973,
2160,Wommelgem,51.203981,4.522188000000028,
2170,Merksem (Antwerpen),51.2512741,4.4485389999999825,
2180,Ekeren (Antwerpen),51.2807314,4.4184494999999515,
2200,Morkhoven,51.1200863,4.82072919999996,
2200,Noorderwijk,51.1393923,4.838834799999972,
2200,Herentals,51.1768541,4.835594600000036,
2220,Hallaar,51.08464,4.73293000000001,
2220,Heist-op-den-Berg,51.0633847,4.7210600999999315,
2221,Booischot,51.05151,4.775229999999965,
2222,Itegem,51.10321,4.729270000000042,
2222,Wiekevorst,51.10758999999999,4.796929999999975,
2223,Schriek,51.02744999999999,4.692720000000008,
2230,Ramsel,51.03211,4.83280000000002,
2230,Herselt,51.05102,4.882258999999976,
2235,Houtvenne,51.04208,4.808940000000007,
2235,Westmeerbeek,51.06032,4.835100000000011,
2235,Hulshout,51.075,4.78916670000001,
2240,Massenhoven,51.1986273,4.6364247000000205,
2240,Viersel,51.18901839999999,4.6523096999999325,
2240,Zandhoven,51.2021793,4.655421199999978,
2242,Pulderbos,51.2165685,4.691900000000032,
2243,Pulle,51.2032977,4.713739700000019,
2250,Olen,51.1662602,4.898907699999995,
2260,Oevel,51.13822,4.904109999999946,
2260,Tongerlo (Antw.),51.10533,4.915650000000028,
2260,Zoerle-Parwijs,51.08879,4.868940000000066,
2260,Westerlo,51.08994999999999,4.914340000000038,
2270,Herenthout,51.1394506,4.756489200000033,
2275,Gierle,51.2671512,4.867706300000009,
2275,Poederlee,51.2263125,4.835314700000026,
2275,Wechelderzande,51.26083329999999,4.7869444000000385,
2275,Lille,51.2420452,4.823225399999956,
2280,Grobbendonk,51.18326159999999,4.734995900000058,
2288,Bouwel,51.1719684,4.742058199999974,
2290,Vorselaar,51.2025247,4.770882700000016,
2300,Turnhout,51.3216509,4.93755770000007,
2310,Rijkevorsel,51.348812,4.7622519999999895,
2320,Hoogstraten,51.403297,4.746821800000021,
2321,Meer,51.4456,4.738299999999981,
2322,Minderhout,51.41654,4.7633899999999585,
2323,Wortel,51.39751,4.794750000000022,
2328,Meerle,51.45724999999999,4.823200000000043,
2330,Merksplas,51.35805,4.863389999999981,
2340,Vlimmeren,51.2971394,4.782045400000015,
2340,Beerse,51.32096,4.85182199999997,
2350,Vosselaar,51.3080556,4.888333299999999,
2360,Oud-Turnhout,51.3177601,4.9828449999999975,
2370,Arendonk,51.322049,5.0863348000000315,
2380,Ravels,51.3762015,5.018556799999942,
2381,Weelde,51.406763,4.990835699999934,
2382,Poppel,51.4471741,5.043180099999972,
2387,Baarle-Hertog,51.4069842,4.893300400000044,
2390,Oostmalle,51.301137,4.733754200000021,
2390,Westmalle,51.2968136,4.694263299999989,
2390,Malle,51.29888889999999,4.7113888999999745,
2400,Mol,51.191087,5.1170647000000145,
2430,Eindhout,51.10334,4.999699999999962,
2430,Vorst (Kempen),51.08738229999999,5.024297700000034,
2430,Laakdal,51.08738229999999,5.024297700000034,
2431,Varendonk,51.08397,4.9512999999999465,
2431,Veerle,51.06994,4.987210000000005,
2440,Geel,51.164768,4.989790999999968,
2450,Meerhout,51.1313889,5.078611099999989,
2460,Lichtaart,51.2246769,4.9169259999999895,
2460,Tielen,51.2434976,4.89767889999996,
2460,Kasterlee,51.2405124,4.9674402000000555,
2470,Retie,51.2669664,5.0842508000000635,
2480,Dessel,51.238107,5.11697300000003,
2490,Balen,51.1578305,5.210066600000005,
2491,Olmen,51.1338157,5.160699000000022,
2500,Koningshooikt,51.09522,4.610109999999963,
2500,Lier,51.1302138,4.571509200000037,
2520,Broechem,51.1813334,4.602012400000035,
2520,Emblem,51.16204130000001,4.60506799999996,
2520,Oelegem,51.2129972,4.599714899999981,
2520,Ranst,51.1889958,4.560918899999933,
2530,Boechout,51.1664397,4.497169999999983,
2531,Vremde,51.17486,4.523109999999974,
2540,Hove,51.1539,4.471040000000016,
2547,Lint,51.127649,4.496903999999972,
2550,Waarloos,51.105061,4.454695899999933,
2550,Kontich,51.131279,4.447840000000042,
2560,Bevel,51.13774,4.680380000000014,
2560,Kessel,51.13915,4.629680000000008,
2560,Nijlen,51.1613664,4.670512899999949,
2570,Duffel,51.09528599999999,4.509900000000016,
2580,Beerzel,51.05786,4.667640000000006,
2580,Putte,51.054027,4.633303000000069,
2590,Gestel,51.12840000000001,4.673160000000053,
2590,Berlaar,51.1163889,4.65666669999996,
2600,Berchem (Antwerpen),51.1955771,4.418839199999979,
2610,Wilrijk (Antwerpen),51.1683102,4.394286800000032,
2620,Hemiksem,51.14518,4.3383400000000165,
2627,Schelle,51.125843,4.341278999999986,
2630,Aartselaar,51.1338889,4.384722199999942,
2640,Mortsel,51.1666667,4.4500000000000455,
2650,Edegem,51.15298199999999,4.438033799999971,
2660,Hoboken (Antwerpen),51.1775732,4.349919999999997,
2800,Walem,51.0676813,4.457214700000009,
2800,Mechelen,51.0258791,4.477536500000042,
2801,Heffen,51.0468914,4.413729099999955,
2811,Hombeek,51.014356,4.442769699999985,
2811,Leest,51.0328978,4.41766819999998,
2812,Muizen (Mechelen),51.0103798,4.515759300000013,
2820,Rijmenam,51.0037609,4.590267700000027,
2820,Bonheiden,51.02221000000001,4.54803000000004,
2830,Blaasveld,51.05583000000001,4.377190000000041,
2830,Heindonk,51.0673,4.4075599999999895,
2830,Tisselt,51.03437,4.357169999999996,
2830,Willebroek,51.05983,4.364039999999932,
2840,Reet,51.10113339999999,4.412588199999959,
2840,Terhagen,51.07919769999999,4.399261199999955,
2840,Rumst,51.0804212,4.421789499999932,
2845,Niel,51.108922,4.334816000000046,
2850,Boom,51.091541,4.368925999999988,
2860,Sint-Katelijne-Waver,51.0614235,4.505555500000014,
2861,Onze-Lieve-Vrouw-Waver,51.0639394,4.575485699999945,
2870,Breendonk,51.04309,4.322040000000015,
2870,Liezele,51.06082,4.2802299999999605,
2870,Ruisbroek (Antw.),51.08799,4.331069999999954,
2870,Puurs,51.075,4.289250000000038,
2880,Hingene,51.1032985,4.268787400000065,
2880,Mariekerke (Bornem),51.0634883,4.192341800000008,
2880,Weert,51.1034075,4.190122999999971,
2880,Bornem,51.0996057,4.240458600000011,
2890,Lippelo,51.04215,4.258600000000001,
2890,Oppuurs,51.06607,4.241989999999987,
2890,Sint-Amands,51.05595,4.2094600000000355,
2900,Schoten,51.2497532,4.497706300000004,
2910,Essen,51.46166669999999,4.455833299999995,
2920,Kalmthout,51.38298,4.475180000000023,
2930,Brasschaat,51.29226999999999,4.494190000000003,
2940,Hoevenen,51.3061855,4.40472950000003,
2940,Stabroek,51.3322222,4.372777799999994,
2950,Kapellen (Antw.),51.3361728,4.4481538,
2960,Sint-Job-in-'t-Goor,51.29827,4.573200000000043,
2960,Sint-Lenaarts,51.34869,4.677030000000059,
2960,Brecht,51.3496533,4.63772270000004,
2970,'s Gravenwezel,51.26292000000001,4.560960000000023,
2970,Schilde,51.2407352,4.5834231000000045,
2980,Halle (Kempen),51.2398459,4.6465058,
2980,Zoersel,51.2682227,4.712569400000007,
2990,Loenhout,51.3990063,4.643228799999974,
2990,Wuustwezel,51.38945,4.591231300000004,
3000,Leuven,50.88151970000001,4.6967578,
3001,Heverlee,50.86386,4.695940000000064,
3010,Kessel-Lo (Leuven),50.88514,4.73571000000004,
3012,Wilsele,50.89047,4.694510000000037,
3018,Wijgmaal (Brabant),50.92624,4.701950000000011,
3020,Veltem-Beisem,50.9063184,4.620824999999968,
3020,Winksele,50.89746659999999,4.643517900000006,
3020,Herent,50.908172,4.670524,
3040,Loonbeek,50.80972,4.610289999999964,
3040,Neerijse,50.81742999999999,4.623450000000048,
3040,Ottenburg,50.75199,4.615790000000061,
3040,Sint-Agatha-Rode,50.78559,4.63408000000004,
3040,Huldenberg,50.7885995,4.588068700000008,
3050,Oud-Heverlee,50.8282606,4.659534000000008,
3051,Sint-Joris-Weert,50.80281,4.65440000000001,
3052,Blanden,50.82558,4.709159999999997,
3053,Haasrode,50.83159,4.72987999999998,
3054,Vaalbeek,50.82553,4.689380000000028,
3060,Korbeek-Dijle,50.83806999999999,4.6381999999999834,
3060,Bertem,50.8632924,4.630763699999989,
3061,Leefdaal,50.84866,4.593899999999962,
3070,Kortenberg,50.8852298,4.536917000000017,
3071,Erps-Kwerps,50.9006097,4.560778199999959,
3078,Everberg,50.8788296,4.571234499999946,
3078,Meerbeek,50.88186409999999,4.5892897999999605,
3080,Duisburg,50.81569,4.55183999999997,
3080,Vossem,50.83577,4.560259999999971,
3080,Tervuren,50.82595,4.507749999999987,
3090,Overijse,50.77381,4.534750000000031,
3110,Rotselaar,50.9535967,4.721511299999975,
3111,Wezemaal,50.9482,4.7554099999999835,
3118,Werchter,50.97278000000001,4.700069999999982,
3120,Tremelo,50.9956159,4.715955099999974,
3128,Baal,50.99554999999999,4.753040000000055,
3130,Betekom,50.98566,4.781700000000001,
3130,Begijnendijk,51.0186111,4.784999999999968,
3140,Keerbergen,51.0057936,4.6320415999999796,
3150,Tildonk,50.94327,4.644490000000019,
3150,Wespelaar,50.95991000000001,4.638839999999959,
3150,Haacht,50.9766667,4.6372221999999965,
3190,Boortmeerbeek,50.98033969999999,4.5744373,
3191,Hever,50.995,4.551349999999957,
3200,Gelrode,50.96548,4.802720000000022,
3200,Aarschot,50.98061509999999,4.827381000000059,
3201,Langdorp,50.99531,4.870830000000069,
3202,Rillaar,50.97438,4.8942200000000184,
3210,Linden,50.89393,4.7721500000000106,
3210,Lubbeek,50.88133389999999,4.829225199999996,
3211,Binkom,50.87119,4.884389999999939,
3212,Pellenberg,50.87116,4.796029999999973,
3220,Kortrijk-Dutsel,50.92569,4.807620000000043,
3220,Sint-Pieters-Rode,50.93239,4.820569999999975,
3220,Holsbeek,50.9248584,4.7861502000000655,
3221,Nieuwrode,50.94955,4.8333900000000085,
3270,Scherpenheuvel,50.9742707,4.978576699999962,
3270,Scherpenheuvel-Zichem,50.9742707,4.978576699999962,
3271,Averbode,51.0305467,4.977453999999966,
3271,Zichem,51.0006721,4.983011799999986,
3272,Messelbroek,50.9933331,4.927480100000025,
3272,Testelt,51.016921,4.954933399999959,
3290,Deurne (Bt.),51.03935999999999,5.096479999999929,
3290,Schaffen,50.99975,5.084839999999986,
3290,Webbekom,50.9722766,5.07200720000003,
3290,Diest,51.00048899999999,5.097864100000038,
3293,Kaggevinne,50.97937,5.018959999999993,
3294,Molenstede,51.00378,5.013469999999984,
3300,Bost,50.78839000000001,4.940630000000056,
3300,Goetsenhoven,50.76781,4.951140000000009,
3300,Hakendover,50.79706,4.985249999999951,
3300,Kumtich,50.82246,4.88742000000002,
3300,Oorbeek,50.79811,4.892399999999952,
3300,Oplinter,50.82923,4.987570000000005,
3300,Sint-Margriete-Houtem (Tienen),50.82836,4.955389999999966,
3300,Vissenaken,50.83768,4.904840000000036,
3300,Tienen,50.808465,4.943226999999979,
3320,Meldert (Bt.),50.78801,4.83771999999999,
3320,Hoegaarden,50.78064879999999,4.868567600000006,
3321,Outgaarden,50.76521,4.917930000000069,
3350,Drieslinter,50.84605,5.050479999999993,
3350,Melkwezer,50.8253,5.06138999999996,
3350,Neerhespen,50.79537999999999,5.036550000000034,
3350,Neerlinter,50.83974,5.02225999999996,
3350,Orsmaal-Gussenhoven,50.8041667,5.062222199999951,
3350,Overhespen,50.79537999999999,5.036550000000034,
3350,Wommersom,50.81338,5.017960000000016,
3350,Linter,50.84151,5.036609999999996,
3360,Korbeek-Lo,50.86019,4.7626900000000205,
3360,Lovenjoel,50.85813,4.781479999999988,
3360,Opvelp,50.81009,4.793329999999969,
3360,Bierbeek,50.8279,4.759810000000016,
3370,Kerkom,50.85519,4.874509999999987,
3370,Neervelp,50.821,4.808109999999942,
3370,Roosbeek,50.83564,4.8623099999999795,
3370,Vertrijk,50.82976,4.834550000000036,
3370,Willebringen,50.81281,4.844910000000027,
3370,Boutersem,50.8333333,4.833333300000049,
3380,Bunsbeek,50.84216499999999,4.942646400000058,
3380,Glabbeek-Zuurbemde,50.8602725,4.9583255999999665,
3381,Kapellen (Bt.),50.8852681,4.9501897999999755,
3384,Attenrode,50.8771186,4.924261399999978,
3390,Houwaart,50.93291,4.857889999999998,
3390,Sint-Joris-Winge,50.90443,4.872579999999971,
3390,Tielt (Bt.),50.94079,4.904289999999946,
3390,Tielt-Winge,50.92069679999999,4.886660300000017,
3391,Meensel-Kiezegem,50.8965,4.925920000000019,
3400,Eliksem,50.78487,5.009680000000003,
3400,Ezemaal,50.77609,5.000160000000051,
3400,Laar,50.77158000000001,5.025719999999978,
3400,Neerwinden,50.75318,5.048900000000003,
3400,Overwinden,50.75318,5.048900000000003,
3400,Rumsdorp,50.76618999999999,5.07623000000001,
3400,Wange,50.78598,5.031759999999963,
3400,Landen,50.7628602,5.042102,
3401,Waasmont,50.72723999999999,5.062310000000025,
3401,Walsbets,50.73723,5.085280000000012,
3401,Walshoutem,50.72373,5.095530000000053,
3401,Wezeren,50.73008,5.104849999999942,
3404,Attenhoven,50.76652,5.093079999999986,
3404,Neerlanden,50.75318,5.048900000000003,
3440,Budingen,50.8654,5.09811000000002,
3440,Dormaal,50.80722,5.098500000000058,
3440,Halle-Booienhoven,50.80475,5.1116799999999785,
3440,Helen-Bos,50.8175,5.084166699999969,
3440,Zoutleeuw,50.8333333,5.100000000000023,
3450,Grazen,50.87478000000001,5.131640000000061,
3450,Geetbets,50.8902757,5.109564099999943,
3454,Rummen,50.88902,5.165680000000066,
3460,Assent,50.95247999999999,5.015899999999988,
3460,Bekkevoort,50.9426234,4.985640999999987,
3461,Molenbeek-Wersbeek,50.91848,4.941569999999956,
3470,Ransberg,50.87398,5.036830000000009,
3470,Kortenaken,50.8973765,5.066397400000028,
3471,Hoeleden,50.86828,4.9868999999999915,
3472,Kersbeek-Miskom,50.885,4.994722200000069,
3473,Waanrode,50.91619,5.004639999999995,
3500,Sint-Lambrechts-Herk,50.89841,5.307410000000004,
3500,Hasselt,50.9215166,5.3447404999999435,
3501,Wimmertingen,50.88411,5.352419999999938,
3510,Spalbeek,50.94907,5.22338000000002,
3510,Kermt (Hasselt),50.94767,5.246759999999995,
3511,Kuringen,50.94387,5.297890000000052,
3511,Stokrooie,50.96619,5.28134,
3512,Stevoort,50.9183,5.25315999999998,
3520,Zonhoven,50.989287,5.372460000000046,
3530,Helchteren,51.05655119999999,5.382692099999986,
3530,Houthalen,51.03146270000001,5.376354099999958,
3530,Houthalen-Helchteren,51.029469,5.3718240000000606,
3540,Berbroek,50.95032,5.208430000000021,
3540,Donk,50.93814,5.134379999999965,
3540,Schulen,50.95991000000001,5.190519999999992,
3540,Herk-de-Stad,50.939241,5.168732900000009,
3545,Loksbergen,50.93429,5.069520000000011,
3545,Zelem,50.97813,5.10579000000007,
3545,Halen,50.9485,5.1111700000000155,
3550,Heusden (Limb.),51.02345,5.30971999999997,
3550,Zolder,51.02345,5.30971999999997,
3550,Heusden-Zolder,51.03432,5.284170000000017,
3560,Linkhout,50.96812,5.1368700000000445,
3560,Meldert (Limb.),50.99867,5.141799999999989,
3560,Lummen,50.9861111,5.190833300000008,
3570,Alken,50.87609,5.30767000000003,
3580,Beringen,51.0473373,5.2214768999999706,
3581,Beverlo,51.0873,5.218979999999988,
3582,Koersel,51.05844,5.271759999999972,
3583,Paal,51.03953,5.17165,
3590,Diepenbeek,50.91083,5.4133600000000115,
3600,Genk,50.96613,5.502100000000041,
3620,Gellik,50.8839114,5.610318300000017,
3620,Neerharen,50.9088851,5.680831399999988,
3620,Veldwezelt,50.8677788,5.630596100000048,
3620,Lanaken,50.8919602,5.639857200000051,
3621,Rekem,50.9224749,5.695727199999965,
3630,Eisden,50.9854566,5.714076900000009,
3630,Leut,50.9900244,5.735090799999966,
3630,Mechelen-aan-de-Maas,50.9797588,5.7018567000000075,
3630,Meeswijk,50.969278,5.661918499999956,
3630,Opgrimbie,50.9432913,5.680957900000067,
3630,Vucht,50.9787264,5.7106714999999895,
3630,Maasmechelen,50.969278,5.661918499999956,
3631,Boorsem,50.9408237,5.719784300000015,
3631,Uikhoven,50.923677,5.718335600000046,
3640,Kessenich,51.15141999999999,5.822969999999941,
3640,Molenbeersel,51.17002,5.73757999999998,
3640,Ophoven,51.12559,5.802040000000034,
3640,Kinrooi,51.14552,5.741129999999998,
3650,Elen,51.06655,5.750829999999951,
3650,Lanklaar,51.0188,5.726200000000063,
3650,Rotem,51.05296999999999,5.741179999999986,
3650,Stokkem,51.02364000000001,5.7441800000000285,
3650,Dilsen-Stokkem,51.0313889,5.717777800000022,
3660,Opglabbeek,51.0422222,5.582499999999982,
3665,As,50.9997751,5.571543799999972,
3668,Niel-bij-As,51.0176272,5.604505700000004,
3670,Ellikom,51.12719,5.5236600000000635,
3670,Gruitrode,51.08999,5.589690000000019,
3670,Meeuwen,51.09867,5.52049999999997,
3670,Neerglabbeek,51.09144,5.616759999999999,
3670,Wijshagen,51.10461,5.558809999999994,
3670,Meeuwen-Gruitrode,51.09495,5.547839999999951,
3680,Neeroeteren,51.0918046,5.699538599999983,
3680,Opoeteren,51.0675622,5.659444300000018,
3680,Maaseik,51.0983909,5.783762499999966,
3690,Zutendaal,50.932735,5.5774679999999535,
3700,Berg (Limb.),50.79183,5.494940000000042,
3700,Diets-Heur,50.7453303,5.4828472000000374,
3700,Haren (Tongeren),50.80785909999999,5.430441999999971,
3700,Henis,50.7992,5.471220000000017,
3700,Kolmont (Tongeren),50.8041,5.423729999999978,
3700,Koninksem,50.76531,5.439970000000017,
3700,Lauw,50.7392355,5.414875299999949,
3700,Mal,50.7684738,5.521463799999992,
3700,Neerrepen,50.81104920000001,5.444213999999988,
3700,Nerem,50.7649963,5.5104893000000175,
3700,Overrepen (Kolmont),50.8041,5.423729999999978,
3700,Piringen (Haren),50.7864119,5.41788710000003,
3700,Riksingen,50.8051007,5.463297600000033,
3700,Rutten,50.7478825,5.442390100000011,
3700,'s Herenelderen,50.8089063,5.5032825000000685,
3700,Sluizen,50.76534359999999,5.531442900000002,
3700,Vreren,50.7515842,5.497464900000068,
3700,Widooie (Haren),50.7713726,5.408433800000012,
3700,Tongeren,50.7805,5.459418000000028,
3717,Herstappe,50.72653,5.425999999999931,
3720,Kortessem,50.8625531,5.378121599999986,
3721,Vliermaalroot,50.8637784,5.424009699999942,
3722,Wintershoven,50.85263,5.419679999999971,
3723,Guigoven,50.8390899,5.399157000000059,
3724,Vliermaal,50.8394948,5.4289046999999755,
3730,Romershoven,50.855984,5.459883699999978,
3730,Sint-Huibrechts-Hern,50.82985,5.449248300000022,
3730,Werm,50.8328482,5.4802846000000045,
3730,Hoeselt,50.8497352,5.491124300000024,
3732,Schalkhoven,50.8414306,5.4495653000000175,
3740,Beverst,50.8902246,5.475171000000046,
3740,Eigenbilzen,50.8746121,5.574635499999999,
3740,Grote-Spouwen,50.8315692,5.55196849999993,
3740,Hees,50.8466302,5.609372000000008,
3740,Kleine-Spouwen,50.8381087,5.548365399999966,
3740,Mopertingen,50.8606327,5.575629499999991,
3740,Munsterbilzen,50.88973259999999,5.526166900000021,
3740,Rijkhoven,50.8329777,5.515098399999943,
3740,Rosmeer,50.8456546,5.580630700000029,
3740,Spouwen,50.8324673,5.556111800000053,
3740,Waltwilder,50.8658211,5.544180200000028,
3740,Bilzen,50.8719054,5.516646300000048,
3742,Martenslinde,50.8565985,5.533230499999945,
3746,Hoelbeek,50.8718626,5.5564999000000626,
3770,Genoelselderen,50.80296999999999,5.5388450000000375,
3770,Herderen,50.8065724,5.572329599999989,
3770,Kanne,50.814055,5.6693136000000095,
3770,Membruggen,50.8141975,5.534339899999964,
3770,Millen,50.7856375,5.556110399999966,
3770,Val-Meer,50.7862227,5.596279999999979,
3770,Vlijtingen,50.8320854,5.584290600000031,
3770,Vroenhoven,50.82632210000001,5.6400304000000006,
3770,Zichen-Zussen-Bolder,50.7933496,5.624555500000042,
3770,Riemst,50.8089945,5.601232799999934,
3790,Fouron-Saint-Martin,50.7485199,5.812233600000013,
3790,Moelingen,50.7570096,5.713497299999972,
3790,Mouland,50.7570096,5.713497299999972,
3790,Sint-Martens-Voeren,50.7485199,5.812233600000013,
3790,Fourons,50.7464187,5.8409039000000575,
3790,Voeren,50.7464187,5.8409039000000575,
3791,Remersdaal,50.73153079999999,5.8808477999999695,
3792,Fouron-Saint-Pierre,50.738357,5.822679099999959,
3792,Sint-Pieters-Voeren,50.738357,5.822679099999959,
3793,Teuven,50.7518324,5.8759546,
3798,Fouron-le-Comte,50.7605269,5.766927200000055,
3798,'s Gravenvoeren,50.7605269,5.766927200000055,
3800,Aalst (Limb.),50.78166,5.208979999999997,
3800,Brustem,50.80565,5.221869999999967,
3800,Engelmanshoven,50.77134,5.250919999999951,
3800,Gelinden,50.76552,5.260919999999942,
3800,Groot-Gelmen,50.78525,5.262960000000021,
3800,Halmaal,50.80589,5.155740000000037,
3800,Kerkom-bij-Sint-Truiden,50.77429,5.177869999999984,
3800,Ordingen,50.81285,5.235210000000052,
3800,Zepperen,50.82116,5.247669999999971,
3800,Sint-Truiden,50.8019192,5.220265499999982,
3803,Duras,50.83552,5.146380000000022,
3803,Gorsem,50.83483,5.161949999999933,
3803,Runkelen,50.84681,5.150880000000029,
3803,Wilderen,50.81587,5.141359999999963,
3806,Velm,50.77931,5.131619999999998,
3830,Berlingen,50.81971,5.31120999999996,
3830,Wellen,50.8436052,5.336240900000007,
3831,Herten,50.83517,5.321990000000028,
3832,Ulbeek,50.84381,5.304650000000038,
3840,Bommershoven (Haren),50.7881486,5.3876867000000175,
3840,Broekom,50.78238,5.331760000000031,
3840,Gors-Opleeuw,50.82123000000001,5.391259999999988,
3840,Gotem,50.80515,5.313509999999951,
3840,Groot-Loon,50.79246999999999,5.3633800000000065,
3840,Haren (Borgloon),50.79273999999999,5.399530000000027,
3840,Hendrieken,50.79889,5.328110000000038,
3840,Hoepertingen,50.81235,5.283680000000004,
3840,Jesseren (Kolmont),50.8053339,5.393594000000007,
3840,Kerniel,50.81632,5.363679999999931,
3840,Kolmont (Borgloon),50.8031485,5.4230892000000495,
3840,Kuttekoven,50.809,5.326029999999946,
3840,Rijkel,50.80989,5.260829999999942,
3840,Voort,50.79478,5.319709999999986,
3840,Borgloon,50.80613,5.343020000000024,
3850,Binderveld,50.8608,5.164809999999989,
3850,Kozen,50.87495999999999,5.239849999999933,
3850,Wijer,50.89838,5.2239099999999326,
3850,Nieuwerkerken (Limb.),50.86475,5.188689999999951,
3870,Batsheers,50.73855,5.28134,
3870,Bovelingen,50.73945,5.260719999999992,
3870,Gutschoven,50.77388999999999,5.31713000000002,
3870,Heks,50.7701,5.3575100000000475,
3870,Horpmaal,50.76049,5.335669999999936,
3870,Klein-Gelmen,50.76978,5.276939999999968,
3870,Mechelen-Bovelingen,50.74054,5.260490000000004,
3870,Mettekoven,50.78103,5.29061999999999,
3870,Opheers,50.73972,5.297659999999951,
3870,Rukkelingen-Loon,50.72784,5.254439999999931,
3870,Vechmaal,50.76141,5.374659999999949,
3870,Veulen,50.76371,5.305780000000027,
3870,Heers,50.75368,5.302090000000021,
3890,Boekhout,50.74568,5.233529999999973,
3890,Jeuk,50.73427,5.209690000000023,
3890,Kortijs,50.70744999999999,5.149440000000027,
3890,Montenaken,50.72101,5.127209999999991,
3890,Niel-bij-Sint-Truiden,50.74217,5.14205000000004,
3890,Vorsen,50.70391000000001,5.16858000000002,
3890,Gingelom,50.74713,5.138653999999974,
3891,Borlo,50.74216,5.181350000000066,
3891,Buvingen,50.75294,5.177670000000035,
3891,Mielen-Boven-Aalst,50.75577999999999,5.214969999999994,
3891,Muizen (Limb.),50.76024,5.17944,
3900,Overpelt,51.21026939999999,5.422537899999952,
3910,Sint-Huibrechts-Lille,51.22251,5.495760000000018,
3910,Neerpelt,51.2277778,5.44222220000006,
3920,Lommel,51.2304193,5.311006300000031,
3930,Achel,51.25224,5.479530000000068,
3930,Hamont,51.25272,5.549530000000004,
3930,Hamont-Achel,51.2480556,5.503055600000039,
3940,Hechtel,51.1252349,5.36611240000002,
3940,Hechtel-Eksel,51.1105222,5.329595799999993,
3941,Eksel,51.1546138,5.394354499999963,
3945,Kwaadmechelen,51.10072,5.144160000000056,
3945,Oostham,51.10373,5.180219999999963,
3945,Ham,51.1038173,5.177736299999992,
3950,Kaulille,51.18716999999999,5.525679999999966,
3950,Reppel,51.15506,5.563089999999988,
3950,Bocholt,51.17290999999999,5.578989999999976,
3960,Beek,51.1558,5.60358999999994,
3960,Gerdingen,51.14803999999999,5.580199999999991,
3960,Opitter,51.11657,5.649720000000002,
3960,Tongerlo (Limb.),51.12856,5.661450000000059,
3960,Bree,51.14099,5.5980200000000195,
3970,Leopoldsburg,51.1188884,5.260540600000013,
3971,Heppen,51.10887349999999,5.228573900000015,
3980,Tessenderlo,51.0642666,5.088193799999999,
3990,Grote-Brogel,51.15435000000001,5.508379999999988,
3990,Kleine-Brogel,51.1668592,5.464735799999971,
3990,Wijchmaal,51.13556,5.413109999999961,
3990,Peer,51.129012,5.460474999999974,
8000,Koolkerke,51.2403327,3.2481089999999995,
8000,Brugge,51.2299337,3.202841600000056,
8020,Hertsberge,51.1053969,3.2730670999999347,
8020,Ruddervoorde,51.095941,3.206519299999968,
8020,Waardamme,51.1133317,3.219316499999991,
8020,Oostkamp,51.1545363,3.233216900000002,
8200,Sint-Andries,51.1972024,3.179475499999967,
8200,Sint-Michiels,51.1858939,3.2082097999999633,
8210,Loppem,51.1559088,3.1959225000000515,
8210,Veldegem,51.1045154,3.1595128999999815,
8210,Zedelgem,51.14233549999999,3.1369128000000046,
8211,Aartrijke,51.1191688,3.090079400000036,
8300,Knokke,51.3467066,3.2893220999999357,
8300,Westkapelle,51.3157028,3.302885300000071,
8300,Knokke-Heist,51.3467066,3.2893220999999357,
8301,Heist-aan-Zee,51.3403638,3.240041700000006,
8301,Ramskapelle (Knokke-Heist),51.3136364,3.2516250999999556,
8310,Assebroek,51.20202339999999,3.255060700000058,
8310,Sint-Kruis (Brugge),51.21429699999999,3.2512976000000435,
8340,Hoeke,51.2916219,3.336728999999991,
8340,Lapscheure,51.2776457,3.3568337000000383,
8340,Moerkerke,51.2430573,3.3400709999999663,
8340,Oostkerke (Damme),51.27855419999999,3.2938857000000326,
8340,Sijsele,51.20156129999999,3.321246100000053,
8340,Damme,51.250818,3.287712000000056,
8370,Uitkerke,51.30330000000001,3.142900000000054,
8370,Blankenberge,51.31237429999999,3.1327684999999974,
8377,Houtave,51.2359799,3.1104678000000376,
8377,Meetkerke,51.2350824,3.151409899999976,
8377,Nieuwmunster,51.273778,3.0986682999999857,
8377,Zuienkerke,51.26500000000001,3.1563889000000245,
8380,Dudzele,51.2736603,3.2247366000000284,
8380,Lissewege,51.2941105,3.1923223000000007,
8380,Zeebrugge (Brugge),51.330074,3.201369999999997,
8400,Stene,51.22441569999999,2.9089685000000145,
8400,Zandvoorde (Oostende),51.2012273,2.9750305000000026,
8400,Oostende,51.2166667,2.8999999999999773,
8420,Klemskerke,51.2433832,3.0229765999999927,
8420,Wenduine,51.2976457,3.0830790999999635,
8420,De Haan,51.271947,3.0400909999999612,
8421,Vlissegem,51.25984709999999,3.0638644000000568,
8430,Middelkerke,51.1798869,2.8060230999999476,
8431,Wilskerke,51.1796383,2.825943000000052,
8432,Leffinge,51.17567,2.877110000000016,
8433,Mannekensvere,51.1259337,2.8181826,
8433,Schore,51.1117368,2.839223500000003,
8433,Sint-Pieters-Kapelle (W.-Vl.),50.8571657,4.457426400000031,
8433,Slijpe,51.1553124,2.8472073000000364,
8433,Spermalie,51.12131,2.846430000000055,
8434,Lombardsijde,51.1478198,2.7565537000000404,
8434,Westende,51.1519765,2.769524600000068,
8450,Bredene,51.2345888,2.9728090999999495,
8460,Ettelgem,51.1795852,3.0302381999999852,
8460,Roksem,51.1674713,3.027636799999982,
8460,Westkerke,51.1644881,3.0154519000000164,
8460,Oudenburg,51.1836837,3.0068564000000606,
8470,Moere,51.1225897,2.955901600000061,
8470,Snaaskerke,51.1775854,2.939081999999985,
8470,Zevekote,51.1375112,2.9200415999999905,
8470,Gistel,51.1562662,2.9676431999999977,
8480,Bekegem,51.1597289,3.045389900000032,
8480,Eernegem,51.12950499999999,3.0274116000000504,
8480,Ichtegem,51.0928542,3.010602199999994,
8490,Snellegem,51.1690484,3.123087700000042,
8490,Stalhille,51.2140395,3.0721578000000136,
8490,Varsenare,51.1891579,3.1421014000000014,
8490,Zerkegem,51.16650019999999,3.0693013000000064,
8490,Jabbeke,51.1829867,3.094824399999993,
8500,Kortrijk,50.81948939999999,3.2577076000000034,
8501,Bissegem,50.82411030000001,3.2280954000000293,
8501,Heule,50.8431958,3.2347200000000385,
8510,Bellegem,50.77660299999999,3.2784441000000015,
8510,Kooigem,50.7396942,3.331316099999981,
8510,Rollegem,50.7659873,3.2634358999999904,
8510,Marke (Kortrijk),50.8070105,3.2335927999999967,
8511,Aalbeke,50.7784023,3.2299376999999367,
8520,Kuurne,50.85397,3.2870000000000346,
8530,Harelbeke,50.8455798,3.3121072999999797,
8531,Bavikhove,50.8754986,3.3112054000000626,
8531,Hulste,50.8804452,3.2982425999999805,
8540,Deerlijk,50.85098,3.3537220000000616,
8550,Zwevegem,50.8080392,3.350525800000014,
8551,Heestert,50.7826441,3.4103660000000673,
8552,Moen,50.7699733,3.3974266999999827,
8553,Otegem,50.8081889,3.4239803000000393,
8554,Sint-Denijs,50.7530651,3.3653137000000015,
8560,Gullegem,50.8447689,3.198971799999981,
8560,Moorsele,50.8405959,3.1646335000000363,
8560,Wevelgem,50.8166667,3.1833332999999584,
8570,Gijzelbrechtegem,50.8285391,3.5058126999999786,
8570,Ingooigem,50.8173718,3.4342331000000286,
8570,Vichte,50.8378727,3.40303229999995,
8570,Anzegem,50.8326615,3.4784724999999526,
8572,Kaster,50.8131679,3.4938322000000426,
8573,Tiegem,50.8086089,3.4752664000000095,
8580,Avelgem,50.7790895,3.4511794999999665,
8581,Kerkhove,50.7983592,3.5006455000000187,
8581,Waarmaarde,50.7908774,3.48545009999998,
8582,Outrijve,50.7560066,3.429288499999984,
8583,Bossuit,50.7481174,3.4072880999999597,
8587,Espierres,50.7184934,3.3553699999999935,
8587,Helchin,50.7321848,3.381146299999955,
8587,Helkijn,50.7321848,3.381146299999955,
8587,Spiere,50.7184934,3.3553699999999935,
8587,Espierres-Helchin,50.7269444,3.3669443999999658,
8587,Spiere-Helkijn,50.7269444,3.3669443999999658,
8600,Beerst,51.0589145,2.8868757999999843,
8600,Driekapellen,50.7063183,3.9862193999999818,
8600,Esen,51.0294434,2.9021448999999393,
8600,Kaaskerke,51.03579269999999,2.836455399999977,
8600,Keiem,51.08074209999999,2.8821755000000167,
8600,Lampernisse,51.0325467,2.7685298000000103,
8600,Leke,51.1004367,2.8904341999999588,
8600,Nieuwkapelle,50.999433,2.799906299999975,
8600,Oostkerke (Diksmuide),51.0464297,2.7972621999999774,
8600,Oudekapelle,51.0135407,2.808013800000026,
8600,Pervijze,51.07334669999999,2.7941218999999364,
8600,Sint-Jacobs-Kapelle,51.0164049,2.833852200000024,
8600,Stuivekenskerke,51.07676679999999,2.825052000000028,
8600,Vladslo,51.0464012,2.9162710000000516,
8600,Woumen,50.9983803,2.869775900000036,
8600,Diksmuide,51.0317064,2.86398650000001,
8610,Handzame,51.025671,3.0031283000000712,
8610,Werken,51.0291439,2.964670299999966,
8610,Zarren,51.0184331,2.9589058999999907,
8610,Kortemark,51.0286111,3.044444399999975,
8620,Ramskapelle (Nieuwpoort),51.1095483,2.7620105999999396,
8620,Sint-Joris (Nieuwpoort),51.1291298,2.7723581000000195,
8620,Nieuwpoort,51.1285059,2.7480064000000084,
8630,Avekapelle,51.0663475,2.7329511000000366,
8630,Beauvoorde,51.01456,2.6531400000000076,
8630,Booitshoeke,51.0869455,2.7332622999999785,
8630,Bulskamp,51.0413505,2.650022799999988,
8630,De Moeren,51.041709,2.600584000000026,
8630,Eggewaartskapelle,51.0496759,2.7218285999999807,
8630,Houtem (W.-Vl.),51.0104746,2.6096641999999974,
8630,Steenkerke (W.-Vl.),51.0574271,2.689264699999967,
8630,Vinkem,51.0161527,2.662851899999964,
8630,Wulveringem,51.014517,2.654460800000038,
8630,Zoutenaaie,51.0485937,2.750750000000039,
8630,Veurne,51.0731945,2.6680059000000256,
8640,Oostvleteren,50.9318028,2.7367963000000373,
8640,Westvleteren,50.9276053,2.716906999999992,
8640,Woesten,50.9006632,2.7891270999999733,
8640,Vleteren,50.9296908,2.7327546999999868,
8647,Lo,50.9806703,2.7489726999999675,
8647,Noordschote,50.9546429,2.8104660000000194,
8647,Pollinkhove,50.9710805,2.73227339999994,
8647,Reninge,50.97334,2.771569999999997,
8647,Lo-Reninge,50.97334,2.771569999999997,
8650,Klerken,50.9980304,2.9041727000000037,
8650,Merkem,50.9528136,2.8523982000000387,
8650,Houthulst,50.9773885,2.9457763999999997,
8660,Adinkerke,51.0751267,2.6034114000000272,
8660,De Panne,51.096303,2.5905440999999882,
8670,Oostduinkerke,51.1158173,2.6824907000000167,
8670,Wulpen,51.1007563,2.6991736999999603,
8670,Koksijde,51.1053908,2.650079499999947,
8680,Bovekerke,51.0544659,2.9627034000000094,
8680,Zande,51.1200517,2.922232200000053,
8680,Koekelare,51.089265,2.9778009999999995,
8690,Hoogstade,50.9795594,2.691656899999998,
8690,Oeren,51.0230442,2.7052384999999504,
8690,Sint-Rijkers,50.9915951,2.687814000000003,
8690,Alveringem,51.0122085,2.7130822000000308,
8691,Beveren-aan-den-Ijzer,51.03019889999999,2.730188300000009,
8691,Gijverinkhove,50.9761349,2.6725748999999723,
8691,Izenberge,50.9942337,2.6547262000000273,
8691,Leisele,50.98554859999999,2.6234329000000116,
8691,Stavele,50.93855199999999,2.6699314999999615,
8700,Aarsele,50.99693430000001,3.422498899999937,
8700,Kanegem,51.0134353,3.403327900000022,
8700,Schuiferskapelle,51.03289969999999,3.3338300000000345,
8700,Tielt,51.0001519,3.326382100000046,
8710,Ooigem,50.8933706,3.336504600000012,
8710,Sint-Baafs-Vijve,50.9103986,3.390768200000025,
8710,Wielsbeke,50.9099543,3.372468700000013,
8720,Markegem,50.9458591,3.402641200000062,
8720,Oeselgem,50.9350995,3.431909899999937,
8720,Wakken,50.9306218,3.3979722000000265,
8720,Dentergem,50.96364579999999,3.418628300000023,
8730,Oedelem,51.1685563,3.339724599999954,
8730,Sint-Joris (Beernem),51.1275828,3.3683707999999797,
8730,Beernem,51.1427778,3.3408332999999857,
8740,Egem,51.0148444,3.259030100000018,
8740,Pittem,50.9942681,3.266663900000026,
8750,Zwevezele,51.03608999999999,3.2104699999999866,
8750,Wingene,51.05865,3.2748000000000275,
8755,Ruiselede,51.0413098,3.39705129999993,
8760,Meulebeke,50.9497222,3.2869444000000385,
8770,Ingelmunster,50.92325,3.262839999999983,
8780,Oostrozebeke,50.92016150000001,3.3345851000000266,
8790,Waregem,50.88695209999999,3.423131699999999,
8791,Beveren (Leie),50.830709,3.215844500000003,
8792,Desselgem,50.8868997,3.349405899999965,
8793,Sint-Eloois-Vijve,50.90348849999999,3.4098712999999634,
8800,Beveren (Roeselare),50.9685498,3.1443097999999736,
8800,Oekene,50.9202542,3.160984399999961,
8800,Rumbeke,50.9332448,3.1560374000000593,
8800,Roeselare,50.949931,3.1294450000000325,
8810,Lichtervelde,51.0277074,3.1439095000000634,
8820,Torhout,51.064451,3.098173999999972,
8830,Gits,50.9970116,3.099991799999998,
8830,Hooglede,50.9785141,3.081464600000004,
8840,Oostnieuwkerke,50.9423778,3.064282800000001,
8840,Westrozebeke,50.931897,3.012283000000025,
8840,Staden,50.9745786,3.0144880000000285,
8850,Ardooie,50.979065,3.1988026999999875,
8851,Koolskamp,51.0019392,3.211786699999948,
8860,Lendelede,50.88583329999999,3.2372222000000193,
8870,Emelgem,50.9271506,3.2178678999999875,
8870,Kachtem,50.93188240000001,3.1924033000000236,
8870,Izegem,50.92019,3.214185000000043,
8880,Rollegem-Kapelle,50.8682853,3.144950900000026,
8880,Sint-Eloois-Winkel,50.8762769,3.1823566000000483,
8880,Ledegem,50.8549686,3.127447899999993,
8890,Dadizele,50.8516407,3.094455499999981,
8890,Moorslede,50.891147,3.0632368999999926,
8900,Brielen,50.867386,2.8501052999999956,
8900,Dikkebus,50.8205936,2.8318861999999854,
8900,Sint-Jan,50.86691399999999,2.9021437000000105,
8900,Ieper,50.8492265,2.8779465000000073,
8902,Hollebeke,50.8053761,2.9371958000000404,
8902,Voormezele,50.8165607,2.875805000000014,
8902,Zillebeke,50.8345035,2.922539899999947,
8904,Boezinge,50.8967457,2.8547932000000174,
8904,Zuidschote,50.91303440000001,2.829544100000021,
8906,Elverdinge,50.88588009999999,2.8175079999999753,
8908,Vlamertinge,50.8536639,2.8243472999999994,
8920,Bikschote,50.9258047,2.864685799999961,
8920,Langemark,50.9135965,2.9200049999999464,
8920,Poelkapelle,50.9176532,2.956597800000054,
8920,Langemark-Poelkapelle,50.9133333,2.9180556000000024,
8930,Lauwe,50.7946478,3.184994599999982,
8930,Rekkem,50.782807,3.1641131999999743,
8930,Menen,50.7961693,3.121442200000047,
8940,Geluwe,50.8099859,3.076704800000016,
8940,Wervik,50.7838218,3.044169199999942,
8950,Nieuwkerke,50.7460655,2.8252870999999686,
8950,Heuvelland,50.733506,2.825097700000015,
8951,Dranouter,50.76591939999999,2.7829724000000624,
8952,Wulvergem,50.7601685,2.8524262999999337,
8953,Wijtschate,50.7858578,2.883113099999946,
8954,Westouter,50.7971484,2.7464371999999457,
8956,Kemmel,50.7832795,2.82861790000004,
8957,Mesen,50.764271,2.8961380000000645,
8957,Messines,50.764271,2.8961380000000645,
8958,Loker,50.7817391,2.7721460999999863,
8970,Reningelst,50.8170545,2.7634047000000237,
8970,Poperinge,50.8452065,2.7211760999999797,
8972,Krombeke,50.9148551,2.688594299999977,
8972,Proven,50.8904872,2.656036800000038,
8972,Roesbrugge-Haringe,50.918879,2.6247955000000047,
8978,Watou,50.8588172,2.6206457000000682,
8980,Beselare,50.84788,3.024675000000002,
8980,Geluveld,50.8338478,2.9939123999999993,
8980,Passendale,50.9002575,3.020732800000019,
8980,Zandvoorde (Zonnebeke),50.8123365,2.9816988999999694,
8980,Zonnebeke,50.87273339999999,2.987471400000004,
9000,Gent,51.06783069999999,3.7290914000000157,
9030,Mariakerke (Gent),51.0736204,3.6806420000000344,
9031,Drongen,51.0509087,3.650063100000011,
9032,Wondelgem,51.09050089999999,3.7160656999999446,
9040,Sint-Amandsberg (Gent),51.0593304,3.7509904999999435,
9041,Oostakker,51.09971299999999,3.764230399999974,
9042,Desteldonk,51.1220868,3.782569100000046,
9042,Mendonk,51.1447934,3.8193014999999377,
9042,Sint-Kruis-Winkel,51.1558401,3.815800099999933,
9050,Gentbrugge,51.03429509999999,3.764014800000041,
9050,Ledeberg (Gent),51.0371743,3.7412236999999777,
9051,Afsnee,51.0305603,3.6661567999999534,
9051,Sint-Denijs-Westrem,51.0200854,3.6695793000000094,
9052,Zwijnaarde,50.99980619999999,3.7106182999999646,
9060,Zelzate,51.1982678,3.812406600000031,
9070,Heusden (O.-Vl.),51.02735,3.803980000000024,
9070,Destelbergen,51.054075,3.8000959999999395,
9080,Beervelde,51.0800983,3.8805757000000085,
9080,Zaffelare,51.1324891,3.8618076999999857,
9080,Zeveneken,51.1074665,3.8988663000000088,
9080,Lochristi,51.0974848,3.8378336000000672,
9090,Gontrode,50.9834948,3.7972910999999385,
9090,Melle,51.0036716,3.800314399999934,
9100,Nieuwkerken-Waas,51.1935108,4.177540099999987,
9100,Sint-Niklaas,51.1559033,4.154425500000002,
9111,Belsele (Sint-Niklaas),51.1428369,4.0861827999999605,
9112,Sinaai-Waas,51.1563307,4.044423800000004,
9120,Haasdonk,51.1810333,4.2378788999999415,
9120,Kallo (Beveren-Waas),51.2526476,4.278681199999937,
9120,Melsele,51.2224882,4.282231400000001,
9120,Vrasene,51.2193961,4.194479399999977,
9120,Beveren-Waas,51.21413,4.253543000000036,
9130,Doel,51.31059759999999,4.26497489999997,
9130,Kallo (Kieldrecht),51.2915,4.173980000000029,
9130,Verrebroek,51.25558909999999,4.18884550000007,
9130,Kieldrecht (Beveren),51.2894202,4.1755238000000645,
9140,Elversele,51.1145439,4.143344599999978,
9140,Steendorp,51.1258102,4.270634200000018,
9140,Tielrode,51.1295276,4.22174670000004,
9140,Temse,51.12879,4.210125000000062,
9150,Bazel,51.147512,4.298358499999949,
9150,Rupelmonde,51.1274074,4.290344799999957,
9150,Kruibeke,51.17063779999999,4.312306900000067,
9160,Daknam,51.1278368,3.987353999999982,
9160,Eksaarde,51.1471563,3.9586262999999917,
9160,Lokeren,51.10234130000001,3.994066299999986,
9170,De Klinge,51.25,4.083333300000049,
9170,Meerdonk,51.2607213,4.145992999999976,
9170,Sint-Pauwels,51.193303,4.097745799999984,
9170,Sint-Gillis-Waas,51.21995099999999,4.127267999999958,
9180,Moerbeke-Waas,51.173409,3.9440099999999347,
9185,Wachtebeke,51.17095,3.8605499999999893,
9190,Kemzeke,51.2062441,4.075699600000007,
9190,Stekene,51.2061111,4.039999999999964,
9200,Appels,51.0293011,4.054140899999993,
9200,Baasrode,51.0378102,4.157724899999948,
9200,Grembergen,51.0550925,4.105663100000015,
9200,Mespelare,50.99608449999999,4.069184599999971,
9200,Oudegem,51.0091316,4.061248500000033,
9200,Schoonaarde,51.0035338,4.01512589999993,
9200,Sint-Gillis-bij-Dendermonde,51.0174597,4.11266820000003,
9200,Dendermonde,51.0254867,4.101993099999959,
9220,Moerzeke,51.0666518,4.155730199999994,
9220,Hamme (O.-Vl.),51.10042,4.13593000000003,
9230,Massemen,50.9808891,3.873490899999979,
9230,Westrem,50.96975699999999,3.8613947000000053,
9230,Wetteren,51.0028673,3.8896460999999363,
9240,Zele,51.0700765,4.040349800000058,
9250,Waasmunster,51.1097222,4.0844443999999385,
9255,Opdorp,51.02806,4.219180000000051,
9255,Buggenhout,51.014359,4.204424000000017,
9260,Schellebelle,51.0115409,3.9288305000000037,
9260,Serskamp,50.99082,3.9221247000000403,
9260,Wichelen,51.0048213,3.9735809000000017,
9270,Kalken,51.0383253,3.918359099999975,
9270,Laarne,51.0304277,3.853564199999937,
9280,Denderbelle,51.0009562,4.09074940000005,
9280,Wieze,50.9786176,4.083669500000042,
9280,Lebbeke,51,4.116666699999996,
9290,Overmere,51.0465707,3.946643399999971,
9290,Uitbergen,51.022548,3.954174700000067,
9290,Berlare,51.0174273,4.005821800000035,
9300,Aalst,50.937793,4.0409133000000566,
9308,Gijzegem,50.9837657,4.051058000000012,
9308,Hofstade (O.-Vl.),50.96915,4.02168000000006,
9310,Baardegem,50.9549555,4.141576999999984,
9310,Herdersem,50.9700983,4.065920600000027,
9310,Meldert (O.-Vl.),50.934325,4.135432900000069,
9310,Moorsel,50.9478217,4.098384200000055,
9320,Nieuwerkerken (Aalst),50.9234243,4.004683099999966,
9320,Erembodegem (Aalst),50.9206095,4.060891999999967,
9340,Impe,50.9604418,3.949884900000029,
9340,Oordegem,50.9565245,3.902863400000001,
9340,Smetlede,50.9660082,3.9277108999999655,
9340,Wanzele,50.9741071,3.955840099999932,
9340,Lede,50.9658713,3.97732689999998,
9400,Appelterre-Eichem,50.8187951,3.9669735999999602,
9400,Denderwindeke,50.7980879,4.024735899999996,
9400,Lieferinge,50.7919279,4.052575199999978,
9400,Nederhasselt,50.8468981,3.9751089000000093,
9400,Okegem,50.8554922,4.055512700000008,
9400,Voorde,50.8246285,3.9448617000000468,
9400,Ninove,50.83364350000001,4.018802999999934,
9401,Pollare,50.81723119999999,4.006885499999953,
9402,Meerbeke,50.8238384,4.04073470000003,
9403,Neigem,50.8033904,4.061815300000035,
9404,Aspelare,50.8433311,3.9574709999999413,
9406,Outer,50.8416281,3.9993363999999474,
9420,Aaigem,50.88915799999999,3.9372244999999566,
9420,Bambrugge,50.9218777,3.928783199999998,
9420,Burst,50.9134028,3.9202801000000136,
9420,Erondegem,50.9408215,3.955425900000023,
9420,Erpe,50.9338285,3.9768861000000015,
9420,Mere,50.9224188,3.9680530000000545,
9420,Ottergem,50.9338291,3.944605499999966,
9420,Vlekkem,50.936432,3.931605999999988,
9420,Erpe-Mere,50.9280556,3.9702777999999626,
9450,Denderhoutem,50.8709652,4.018481500000007,
9450,Heldergem,50.8749786,3.9606280000000424,
9450,Haaltert,50.90244,4.005651499999999,
9451,Kerksken,50.8902903,3.992092800000023,
9470,Denderleeuw,50.884149,4.070768300000054,
9472,Iddergem,50.8745041,4.048752899999954,
9473,Welle,50.8990369,4.05558700000006,
9500,Goeferdinge,50.7673697,3.8414943999999878,
9500,Moerbeke,50.752437,3.917932599999972,
9500,Nederboelare,50.7707473,3.8630756999999676,
9500,Onkerzele,50.7854778,3.916464899999937,
9500,Ophasselt,50.82118209999999,3.8913281999999754,
9500,Overboelare,50.76227369999999,3.863095499999986,
9500,Viane,50.7435153,3.9227667999999767,
9500,Zarlardinge,50.76211670000001,3.8286395000000084,
9500,Geraardsbergen,50.77042429999999,3.872386399999982,
9506,Grimminge,50.7938805,3.9441262999999935,
9506,Idegem,50.79999309999999,3.92678049999995,
9506,Nieuwenhove,50.7875782,3.9866164000000026,
9506,Schendelbeke,50.7957523,3.894866900000011,
9506,Smeerebbe-Vloerzegem,50.815712,3.9210352000000057,
9506,Waarbeke,50.7782217,3.968796399999974,
9506,Zandbergen,50.7946427,3.946179700000016,
9520,Bavegem,50.9442706,3.8657862000000023,
9520,Vlierzele,50.9312501,3.8956081999999697,
9520,Zonnegem,50.9262262,3.9087653000000273,
9520,Sint-Lievens-Houtem,50.9206626,3.8544167000000016,
9521,Letterhoutem,50.92638909999999,3.8820402999999715,
9550,Hillegem,50.8955518,3.8541872000000694,
9550,Sint-Antelinks,50.850217,3.9253358999999364,
9550,Sint-Lievens-Esse,50.85707559999999,3.885595100000046,
9550,Steenhuize-Wijnhuize,50.8457249,3.875741699999935,
9550,Woubrechtegem,50.8729342,3.9158201999999847,
9550,Herzele,50.85353139999999,3.8986568999999918,
9551,Ressegem,50.89204119999999,3.909603899999979,
9552,Borsbeke,50.9048954,3.893199999999979,
9570,Deftinge,50.7873351,3.8396638000000394,
9570,Sint-Maria-Lierde,50.8183551,3.8390630999999757,
9570,Lierde,50.8190695,3.83816580000007,
9571,Hemelveerdegem,50.8069634,3.8569442000000436,
9572,Sint-Martens-Lierde,50.80466819999999,3.8227044000000205,
9600,Renaix,50.7497709,3.604064200000039,
9600,Ronse,50.7497709,3.604064200000039,
9620,Elene,50.890414,3.810291099999972,
9620,Erwetegem,50.8534264,3.8187485999999353,
9620,Godveerdegem,50.862263,3.829936099999941,
9620,Grotenberge,50.8730328,3.8334131000000298,
9620,Leeuwergem,50.8881102,3.8302773000000343,
9620,Oombergen (Zottegem),50.89902170000001,3.8370058000000427,
9620,Sint-Goriks-Oudenhove,50.853376,3.786034500000028,
9620,Sint-Maria-Oudenhove (Zottegem),50.8332892,3.7961149000000205,
9620,Strijpen,50.8680225,3.7876333000000386,
9620,Velzeke-Ruddershove,50.88564419999999,3.78086159999998,
9620,Zottegem,50.86954739999999,3.8107093999999506,
9630,Beerlegem,50.90589629999999,3.7167362999999796,
9630,Dikkele,50.9041388,3.742114899999933,
9630,Hundelgem,50.8895095,3.748358400000029,
9630,Meilegem,50.9049599,3.698957899999982,
9630,Munkzwalm,50.8778017,3.7330621999999494,
9630,Paulatem,50.8962994,3.715650500000038,
9630,Roborst,50.8655452,3.7517318999999816,
9630,Rozebeke,50.84965280000001,3.752765199999999,
9630,Sint-Blasius-Boekel,50.8516744,3.7193829999999934,
9630,Sint-Denijs-Boekel,50.8649078,3.7113359999999602,
9630,Sint-Maria-Latem,50.890211,3.706864399999972,
9630,Zwalm,50.8799184,3.728870499999971,
9636,Nederzwalm-Hermelgem,50.8875058,3.6863846999999623,
9660,Elst,50.8312919,3.7386165000000346,
9660,Everbeek,50.7629802,3.808278800000039,
9660,Michelbeke,50.8334231,3.7629435999999714,
9660,Nederbrakel,50.8030762,3.75219340000001,
9660,Opbrakel,50.7970364,3.7569851000000654,
9660,Zegelsem,50.8188341,3.718135699999948,
9660,Brakel,50.80276,3.7638200000000097,
9661,Parike,50.7848195,3.7979447000000164,
9667,Sint-Kornelis-Horebeke,50.834426,3.6983275999999705,
9667,Sint-Maria-Horebeke,50.84049,3.691596000000004,
9667,Horebeke,50.8372,3.6867200000000366,
9680,Etikhove,50.812527,3.626663399999984,
9680,Maarke-Kerkem,50.815968,3.6541835000000447,
9680,Maarkedal,50.7992486,3.644200700000056,
9681,Nukerke,50.79703,3.5947055999999975,
9688,Schorisse,50.8044682,3.6769838000000163,
9690,Berchem (O.-Vl.),50.7901621,3.509544300000016,
9690,Kwaremont,50.7767287,3.5253768999999693,
9690,Ruien,50.770725,3.482967400000007,
9690,Zulzeke,50.7889651,3.570889099999931,
9690,Kluisbergen,50.7784304,3.493558900000039,
9700,Bevere,50.85236949999999,3.587545099999943,
9700,Edelare,50.8302334,3.6287307000000055,
9700,Eine,50.867937,3.620744000000059,
9700,Ename,50.8570277,3.6319101000000273,
9700,Heurne,50.8837448,3.6287389000000303,
9700,Leupegem,50.8329265,3.6018007000000125,
9700,Mater,50.8424603,3.663553699999966,
9700,Melden,50.8138095,3.564279899999974,
9700,Mullem,50.8912265,3.6030580999999984,
9700,Nederename,50.8667191,3.634881500000006,
9700,Volkegem,50.8393802,3.64278139999999,
9700,Welden,50.8784011,3.655539900000008,
9700,Oudenaarde,50.8469306,3.601436700000022,
9750,Huise,50.89932659999999,3.5896533999999747,
9750,Ouwegem,50.9115762,3.5992208999999775,
9750,Zingem,50.9013629,3.6526704000000336,
9770,Kruishoutem,50.9275809,3.537358700000027,
9771,Nokere,50.8850943,3.5105895000000373,
9772,Wannegem-Lede,50.889802,3.551506600000039,
9790,Elsegem,50.8245725,3.535361500000022,
9790,Moregem,50.8504552,3.5614070999999967,
9790,Ooike (Wortegem-Petegem),50.86986510000001,3.5510606999999936,
9790,Petegem-aan-de-Schelde,50.8333051,3.5560780000000705,
9790,Wortegem,50.8520887,3.510243199999991,
9790,Wortegem-Petegem,50.8520887,3.510243199999991,
9800,Astene,50.9837892,3.5604332999999997,
9800,Bachte-Maria-Leerne,51.0108541,3.5783675999999787,
9800,Gottem,50.9649581,3.4613449999999375,
9800,Grammene,50.9771417,3.4648864000000685,
9800,Meigem,51.0168961,3.5404289000000517,
9800,Petegem-aan-de-Leie,50.9800082,3.533877899999993,
9800,Sint-Martens-Leerne,51.0154398,3.587717200000043,
9800,Vinkt,51.00816409999999,3.4793988999999783,
9800,Wontergem,50.9794219,3.4445577000000185,
9800,Zeveren,50.9962852,3.50110559999996,
9800,Deinze,50.98756419999999,3.5235857000000124,
9810,Eke,50.9580565,3.637455100000011,
9810,Nazareth,50.9597659,3.5951407999999674,
9820,Bottelare,50.9631988,3.7537909000000127,
9820,Lemberge,50.9781227,3.772967699999981,
9820,Melsen,50.95631909999999,3.6940644999999677,
9820,Munte,50.9450049,3.744155200000023,
9820,Schelderode,50.9713789,3.7155351999999766,
9820,Merelbeke,50.9925349,3.7439229999999952,
9830,Sint-Martens-Latem,51.0135066,3.6287715999999364,
9831,Deurle,51.0092272,3.6043494000000464,
9840,Zevergem,50.9791445,3.696151699999973,
9840,De Pinte,50.99109499999999,3.6504620000000614,
9850,Hansbeke,51.0747168,3.5356475999999475,
9850,Landegem,51.0567048,3.573148100000026,
9850,Merendree,51.07774209999999,3.5770219999999426,
9850,Poesele,51.033991,3.516149700000028,
9850,Vosselare,51.0294647,3.5574384999999893,
9850,Nevele,51.0343466,3.5478736000000026,
9860,Balegem,50.9204927,3.793498399999976,
9860,Gijzenzele,50.97058879999999,3.81546979999996,
9860,Landskouter,50.9683883,3.7928735000000415,
9860,Moortsele,50.9590134,3.779461999999967,
9860,Scheldewindeke,50.93839819999999,3.785518400000001,
9860,Oosterzele,50.9467656,3.81550500000003,
9870,Machelen (O.-Vl.),50.87628309999999,4.421970699999974,
9870,Olsene,50.9362129,3.465732800000069,
9870,Zulte,50.9219214,3.4437732999999753,
9880,Lotenhulle,51.04838729999999,3.4655771999999843,
9880,Poeke,51.040935,3.4440488000000187,
9880,Aalter,51.0769076,3.432344599999965,
9881,Bellem,51.0884355,3.4906453999999485,
9890,Asper,50.9160245,3.651032100000066,
9890,Baaigem,50.9296017,3.7219345999999405,
9890,Dikkelvenne,50.9190023,3.687424700000065,
9890,Semmerzake,50.9430929,3.6647202000000334,
9890,Vurste,50.9490931,3.6843030999999655,
9890,Gavere,50.92634,3.6631130000000667,
9900,Eeklo,51.187908,3.561290999999983,
9910,Ursel,51.1294092,3.485615300000063,
9910,Knesselare,51.1389455,3.4127584999999954,
9920,Lovendegem,51.1075935,3.6285574999999426,
9921,Vinderhoute,51.0869089,3.6407213999999612,
9930,Zomergem,51.1148946,3.5611178999999993,
9931,Oostwinkel,51.1508463,3.525260399999979,
9932,Ronsele,51.1309736,3.5516605000000254,
9940,Ertvelde,51.1787632,3.74668650000001,
9940,Kluizen,51.1557298,3.7303320999999414,
9940,Sleidinge,51.1319702,3.678911699999958,
9940,Evergem,51.1101028,3.7067230999999765,
9950,Waarschoot,51.150958,3.6030949999999393,
9960,Assenede,51.2269806,3.751015700000039,
9961,Boekhoute,51.25817379999999,3.7181501000000026,
9968,Bassevelde,51.23006239999999,3.677743200000009,
9968,Oosteeklo,51.1920171,3.688377800000012,
9970,Kaprijke,51.22307499999999,3.618605699999989,
9971,Lembeke,51.1945809,3.6330206999999746,
9980,Sint-Laureins,51.2361689,3.5329424000000245,
9981,Sint-Margriete,51.2803944,3.546935699999949,
9982,Sint-Jan-in-Eremo,51.27370089999999,3.5768504999999777,
9988,Waterland-Oudeman,51.2888925,3.590299899999991,
9988,Watervliet,51.2765175,3.627019799999971,
9990,Maldegem,51.209082,3.448661099999981,
9991,Adegem,51.2045152,3.4900073999999677,
9992,Middelburg,51.2547106,3.4150935000000118,